{
    "CCSDS_OMM_VERS": "3.0",
    "COMMENT": "GENERATED VIA SPACE-TRACK.ORG API",
    "CREATION_DATE": "2025-05-20T18:25:46",
    "ORIGINATOR": "18 SPCS",
    "OBJECT_NAME": "NAVSTAR 81 (USA 319)",
    "OBJECT_ID": "2021-054A",
    "CENTER_NAME": "EARTH",
    "REF_FRAME": "TEME",
    "TIME_SYSTEM": "UTC",
    "MEAN_ELEMENT_THEORY": "SGP4",
    "EPOCH": "2025-05-20T08:53:06.684864",
    "MEAN_MOTION": "2.00565385",
    "ECCENTRICITY": "0.00191660",
    "INCLINATION": "55.3220",
    "RA_OF_ASC_NODE": "348.2309",
    "ARG_OF_PERICENTER": "226.9610",
    "MEAN_ANOMALY": "308.3242",
    "EPHEMERIS_TYPE": "0",
    "CLASSIFICATION_TYPE": "U",
    "NORAD_CAT_ID": "48859",
    "ELEMENT_SET_NO": "999",
    "REV_AT_EPOCH": "2887",
    "BSTAR": "0.00000000000000",
    "MEAN_MOTION_DOT": "-0.00000063",
    "MEAN_MOTION_DDOT": "0.0000000000000",
    "SEMIMAJOR_AXIS": "26560.191",
    "PERIOD": "717.970",
    "APOAPSIS": "20232.961",
    "PERIAPSIS": "20131.150",
    "OBJECT_TYPE": "PAYLOAD",
    "RCS_SIZE": "LARGE",
    "COUNTRY_CODE": "US",
    "LAUNCH_DATE": "2021-06-17",
    "SITE": "AFETR",
    "DECAY_DATE": null,
    "FILE": "4734167",
    "GP_ID": "288010130",
    "TLE_LINE0": "0 NAVSTAR 81 (USA 319)",
    "TLE_LINE1": "1 48859U 21054A   25140.37021626 -.00000063  00000-0  00000-0 0  9995",
    "TLE_LINE2": "2 48859  55.3220 348.2309 0019166 226.9610 308.3242  2.00565385 28872"
}